NORAD_CAT_ID,OBJECT_NAME,OBJECT_TYPE,EPOCH,MEAN_MOTION,ECCENTRICITY,INCLINATION,RA_OF_ASC_NODE,ARG_OF_PERICENTER,MEAN_ANOMALY,BSTAR,MEAN_MOTION_DOT,MEAN_MOTION_DDOT,TLE_LINE0,TLE_LINE1,TLE_LINE2,SEMIMAJOR_AXIS,PERIOD,APOGEE,PERIGEE,DECAYED
55947.0,STARLINK-5851,PAYLOAD,2024-06-02 04:20:02,14.98295887,0.0002665,69.9992,111.8329,271.2457,88.8396,-0.00036319,-4.42e-05,0.0,0 STARLINK-5851,1 55947U 23037AK  24154.18058853 -.00004420  00000-0 -36319-3 0  9996,2 55947  69.9992 111.8329 0002665 271.2457  88.8396 14.98295887 67633,6950.298,96.109,574.016,570.311,0.0
55947.0,STARLINK-5851,PAYLOAD,2024-06-02 07:32:17,14.98322786,0.0003104,69.9993,111.4958,263.2875,96.7931,-5.1984e-05,-7.13e-06,0.0,0 STARLINK-5851,1 55947U 23037AK  24154.31408615 -.00000713  00000-0 -51984-4 0  9993,2 55947  69.9993 111.4958 0003104 263.2875  96.7931 14.98322786 67656,6950.215,96.107,574.238,569.923,0.0
55947.0,STARLINK-5851,PAYLOAD,2024-06-02 13:56:49,14.98324794,0.0003056,69.9995,110.8228,269.8572,90.2237,2.759e-05,2.36e-06,0.0,0 STARLINK-5851,1 55947U 23037AK  24154.58112502  .00000236  00000-0  27590-4 0  9993,2 55947  69.9995 110.8228 0003056 269.8572  90.2237 14.98324794 67359,6950.209,96.107,574.198,569.95,0.0
55947.0,STARLINK-5851,PAYLOAD,2024-06-02 20:21:21,14.98323011,0.0003034,69.9998,110.1494,269.3111,90.77,8.9622e-05,9.76e-06,0.0,0 STARLINK-5851,1 55947U 23037AK  24154.84816568  .00000976  00000-0  89622-4 0  9990,2 55947  69.9998 110.1494 0003034 269.3111  90.7700 14.98323011 67395,6950.215,96.107,574.188,569.971,0.0
55947.0,STARLINK-5851,PAYLOAD,2024-06-03 04:22:01,14.98323256,0.0002984,69.9993,109.3079,267.9889,92.0929,0.0002807,3.257e-05,0.0,0 STARLINK-5851,1 55947U 23037AK  24155.18196264  .00003257  00000-0  28070-3 0  9996,2 55947  69.9993 109.3079 0002984 267.9889  92.0929 14.98323256 67780,6950.214,96.107,574.153,570.005,0.0
55947.0,STARLINK-5851,PAYLOAD,2024-06-03 13:58:48,14.98351811,0.0003196,69.9996,108.2976,272.7666,87.3127,-6.1135e-06,-1.66e-06,0.0,0 STARLINK-5851,1 55947U 23037AK  24155.58250907 -.00000166  00000-0 -61135-5 0  9994,2 55947  69.9996 108.2976 0003196 272.7666  87.3127 14.98351811 67505,6950.125,96.106,574.212,569.769,0.0
55947.0,STARLINK-5851,PAYLOAD,2024-06-03 20:23:21,14.98314283,0.0002948,69.9995,107.6249,269.5765,90.5056,0.00062614,7.383e-05,0.0,0 STARLINK-5851,1 55947U 23037AK  24155.84955581  .00007383  00000-0  62614-3 0  9990,2 55947  69.9995 107.6249 0002948 269.5765  90.5056 14.98314283 67541,6950.241,96.108,574.155,570.058,0.0
55947.0,STARLINK-5851,PAYLOAD,2024-06-04 02:47:53,14.98324009,0.0002799,69.9992,106.9512,265.8196,94.2643,0.00065702,7.754e-05,0.0,0 STARLINK-5851,1 55947U 23037AK  24156.11659064  .00007754  00000-0  65702-3 0  9991,2 55947  69.9992 106.9512 0002799 265.8196  94.2643 14.98324009 67926,6950.211,96.107,574.022,570.131,0.0
55947.0,STARLINK-5851,PAYLOAD,2024-06-04 20:25:21,14.98345744,0.0002879,69.9989,105.1016,266.4669,93.6161,8.4917e-05,9.21e-06,0.0,0 STARLINK-5851,1 55947U 23037AK  24156.85094862  .00000921  00000-0  84917-4 0  9990,2 55947  69.9989 105.1016 0002879 266.4669  93.6161 14.98345744 67694,6950.144,96.106,574.01,570.008,0.0
55947.0,STARLINK-5851,PAYLOAD,2024-06-05 04:26:02,14.98339947,0.0002802,69.9992,104.2581,271.1991,88.8847,1.8585e-06,-7.1e-07,0.0,0 STARLINK-5851,1 55947U 23037AK  24157.18475181 -.00000071  00000-0  18585-5 0  9990,2 55947  69.9992 104.2581 0002802 271.1991  88.8847 14.98339947 68081,6950.162,96.106,573.975,570.08,0.0
55947.0,STARLINK-5851,PAYLOAD,2024-06-05 14:02:51,14.98334944,0.0002762,69.9993,103.2491,271.222,88.8622,-0.00010455,-1.34e-05,0.0,0 STARLINK-5851,1 55947U 23037AK  24157.58531532 -.00001340  00000-0 -10455-3 0  9994,2 55947  69.9993 103.2491 0002762 271.2220  88.8622 14.98334944 67804,6950.178,96.107,573.962,570.123,0.0
55947.0,STARLINK-5851,PAYLOAD,2024-06-05 20:27:23,14.98337344,0.0002717,69.9996,102.5763,271.6954,88.3894,-0.00016983,-2.119e-05,0.0,0 STARLINK-5851,1 55947U 23037AK  24157.85235430 -.00002119  00000-0 -16983-3 0  9999,2 55947  69.9996 102.5763 0002717 271.6954  88.3894 14.98337344 68184,6950.17,96.107,573.924,570.147,0.0
55947.0,STARLINK-5851,PAYLOAD,2024-06-06 06:04:11,14.98339048,0.0002632,69.9998,101.5644,266.5963,93.4895,-0.00014675,-1.844e-05,0.0,0 STARLINK-5851,1 55947U 23037AK  24158.25290999 -.00001844  00000-0 -14675-3 0  9995,2 55947  69.9998 101.5644 0002632 266.5963  93.4895 14.98339048 67902,6950.165,96.106,573.859,570.201,0.0
55947.0,STARLINK-5851,PAYLOAD,2024-06-07 22:07:32,14.98331653,0.0002742,70.0004,97.3568,270.2512,89.8333,7.144e-05,7.6e-06,0.0,0 STARLINK-5851,1 55947U 23037AK  24159.92190686  .00000760  00000-0  71440-4 0  9990,2 55947  70.0004  97.3568 0002742 270.2512  89.8333 14.98331653 68152,6950.188,96.107,573.959,570.147,0.0
55947.0,STARLINK-5851,PAYLOAD,2024-06-08 04:32:04,14.98337939,0.0002668,70.0002,96.6849,268.6879,91.3974,0.00013269,1.491e-05,0.0,0 STARLINK-5851,1 55947U 23037AK  24160.18894084  .00001491  00000-0  13269-3 0  9999,2 55947  70.0002  96.6849 0002668 268.6879  91.3974 14.98337939 68532,6950.168,96.106,573.888,570.179,0.0
55947.0,STARLINK-5851,PAYLOAD,2024-06-08 12:32:44,14.98384918,0.0002603,70.003,95.8408,285.5846,74.5025,-0.00094324,-0.00011345,0.0,0 STARLINK-5851,1 55947U 23037AK  24160.52273332 -.00011345  00000-0 -94324-3 0  9996,2 55947  70.0030  95.8408 0002603 285.5846  74.5025 14.98384918 68243,6950.023,96.103,573.697,570.079,0.0
55947.0,STARLINK-5851,PAYLOAD,2024-06-08 22:09:34,14.98327172,0.000258,70.0002,94.8345,265.0395,95.047,-1.824e-05,-3.11e-06,0.0,0 STARLINK-5851,1 55947U 23037AK  24160.92331135 -.00000311  00000-0 -18240-4 0  9991,2 55947  70.0002  94.8345 0002580 265.0395  95.0470 14.98327172 68305,6950.202,96.107,573.86,570.273,0.0
55947.0,STARLINK-5851,PAYLOAD,2024-06-09 04:34:06,14.98326288,0.0002413,70.0012,94.1594,276.3587,83.7297,-4.146e-05,-5.87e-06,0.0,0 STARLINK-5851,1 55947U 23037AK  24161.19035460 -.00000587  00000-0 -41460-4 0  9998,2 55947  70.0012  94.1594 0002413 276.3587  83.7297 14.98326288 68687,6950.204,96.107,573.746,570.392,0.0
55947.0,STARLINK-5851,PAYLOAD,2024-06-09 18:59:18,14.9833367,0.0002595,70.0006,92.6461,262.8586,97.2278,-3.4004e-05,-4.99e-06,0.0,0 STARLINK-5851,1 55947U 23037AK  24161.79118918 -.00000499  00000-0 -34004-4 0  9992,2 55947  70.0006  92.6461 0002595 262.8586  97.2278 14.98333670 68778,6950.182,96.107,573.85,570.243,0.0
55947.0,STARLINK-5851,PAYLOAD,2024-06-09 22:11:34,14.98333196,0.0002628,70.0004,92.309,264.9971,95.0888,-5.0044e-05,-6.9e-06,0.0,0 STARLINK-5851,1 55947U 23037AK  24161.92470986 -.00000690  00000-0 -50044-4 0  9998,2 55947  70.0004  92.3090 0002628 264.9971  95.0888 14.98333196 68450,6950.183,96.107,573.875,570.221,0.0
55947.0,STARLINK-5851,PAYLOAD,2024-06-10 06:12:14,14.9833591,0.0002623,70.0004,91.4673,265.1011,94.9849,-6.0673e-06,-1.65e-06,0.0,0 STARLINK-5851,1 55947U 23037AK  24162.25850657 -.00000165  00000-0 -60673-5 0  9999,2 55947  70.0004  91.4673 0002623 265.1011  94.9849 14.98335910 68507,6950.175,96.107,573.863,570.217,0.0
55947.0,STARLINK-5851,PAYLOAD,2024-06-10 20:37:27,14.98326092,0.0002642,70.0003,89.9521,264.2777,95.8081,9.8428e-05,1.082e-05,0.0,0 STARLINK-5851,1 55947U 23037AK  24162.85935034  .00001082  00000-0  98428-4 0  9993,2 55947  70.0003  89.9521 0002642 264.2777  95.8081 14.98326092 68936,6950.205,96.107,573.906,570.234,0.0
55947.0,STARLINK-5851,PAYLOAD,2024-06-10 22:13:35,14.98325953,0.0002654,70.0002,89.7838,264.4242,95.6615,9.5925e-05,1.052e-05,0.0,0 STARLINK-5851,1 55947U 23037AK  24162.92611070  .00001052  00000-0  95925-4 0  9998,2 55947  70.0002  89.7838 0002654 264.4242  95.6615 14.98325953 68606,6950.205,96.107,573.915,570.226,0.0
55947.0,STARLINK-5851,PAYLOAD,2024-06-11 12:38:48,14.98330501,0.0002837,69.9998,88.2662,268.6266,91.4568,8.4358e-05,9.14e-06,0.0,0 STARLINK-5851,1 55947U 23037AK  24163.52694846  .00000914  00000-0  84358-4 0  9991,2 55947  69.9998  88.2662 0002837 268.6266  91.4568 14.98330501 68696,6950.191,96.107,574.028,570.085,0.0
55947.0,STARLINK-5851,PAYLOAD,2024-06-12 04:40:08,14.98337342,0.0002805,69.9997,86.584,269.9118,90.1719,0.00013733,1.546e-05,0.0,0 STARLINK-5851,1 55947U 23037AK  24164.19454134  .00001546  00000-0  13733-3 0  9999,2 55947  69.9997  86.5840 0002805 269.9118  90.1719 14.98337342 69133,6950.17,96.107,573.985,570.086,0.0
55947.0,STARLINK-5851,PAYLOAD,2024-06-12 12:40:49,14.98331625,0.0002952,69.9996,85.742,269.2473,90.8347,-1.1889e-05,-2.35e-06,0.0,0 STARLINK-5851,1 55947U 23037AK  24164.52834682 -.00000235  00000-0 -11889-4 0  9993,2 55947  69.9996  85.7420 0002952 269.2473  90.8347 14.98331625 69184,6950.188,96.107,574.105,570.001,0.0
55947.0,STARLINK-5851,PAYLOAD,2024-06-12 22:17:37,14.98326884,0.0002925,69.9996,84.7324,270.4229,89.6595,-4.6066e-05,-6.43e-06,0.0,0 STARLINK-5851,1 55947U 23037AK  24164.92891136 -.00000643  00000-0 -46066-4 0  9992,2 55947  69.9996  84.7324 0002925 270.4229  89.6595 14.98326884 68900,6950.203,96.107,574.1,570.035,0.0
55947.0,STARLINK-5851,PAYLOAD,2024-06-13 04:42:10,14.98328554,0.000293,69.9997,84.0591,270.6755,89.4069,-2.8782e-05,-4.36e-06,0.0,0 STARLINK-5851,1 55947U 23037AK  24165.19595005 -.00000436  00000-0 -28782-4 0  9993,2 55947  69.9997  84.0591 0002930 270.6755  89.4069 14.98328554 68946,6950.197,96.107,574.099,570.026,0.0
55947.0,STARLINK-5851,PAYLOAD,2024-06-13 22:19:38,14.98332933,0.0002879,70.0,82.2075,271.113,88.97,-5.5471e-06,-1.59e-06,0.0,0 STARLINK-5851,1 55947U 23037AK  24165.93030615 -.00000159  00000-0 -55471-5 0  9994,2 55947  70.0000  82.2075 0002879 271.1130  88.9700 14.98332933 69051,6950.184,96.107,574.05,570.048,0.0
55947.0,STARLINK-5851,PAYLOAD,2024-06-14 11:08:43,14.98321712,0.0002767,70.0003,80.8619,270.829,89.2552,0.00021715,2.498e-05,0.0,0 STARLINK-5851,1 55947U 23037AK  24166.46438785  .00002498  00000-0  21715-3 0  9991,2 55947  70.0003  80.8619 0002767 270.8290  89.2552 14.98321712 69132,6950.219,96.108,574.007,570.16,0.0
